{
  "type": "Feature",
  "properties": {
    "name": "W2C South",
    "source": "configs/aoi_other_format/W2C_South_AOI.kmz (Placemark W2C_South)",
    "boundary_status": "user_supplied_kmz"
  },
  "geometry": {
    "type": "Polygon",
    "coordinates": [
      [
        [
          -67.09157290409667,
          17.83572615854209
        ],
        [
          -66.40241185767644,
          17.83506768071816
        ],
        [
          -66.40284556038941,
          18.04724827039971
        ],
        [
          -66.51922608394655,
          18.047432637275
        ],
        [
          -67.09176880642183,
          18.0474154551636
        ],
        [
          -67.09157290409667,
          17.83572615854209
        ]
      ]
    ]
  }
}
